[{"OBJECT_NAME":"YAOGAN-14","OBJECT_ID":"2012-021A","EPOCH":"2026-03-09T23:13:16.463424","MEAN_MOTION":15.26486019,"ECCENTRICITY":0.00056417,"INCLINATION":97.2863,"RA_OF_ASC_NODE":208.4378,"ARG_OF_PERICENTER":161.6562,"MEAN_ANOMALY":198.4882,"EPHEMERIS_TYPE":0,"CLASSIFICATION_TYPE":"U","NORAD_CAT_ID":38257,"ELEMENT_SET_NO":999,"REV_AT_EPOCH":77067,"BSTAR":0.00037795498,"MEAN_MOTION_DOT":9.798e-5,"MEAN_MOTION_DDOT":0},{"OBJECT_NAME":"STARLINK-36452","OBJECT_ID":"2026-005B","EPOCH":"2026-03-09T12:19:00.540480","MEAN_MOTION":15.27588633,"ECCENTRICITY":0.00033241,"INCLINATION":43.0013,"RA_OF_ASC_NODE":238.6207,"ARG_OF_PERICENTER":284.824,"MEAN_ANOMALY":75.2244,"EPHEMERIS_TYPE":0,"CLASSIFICATION_TYPE":"U","NORAD_CAT_ID":67405,"ELEMENT_SET_NO":999,"REV_AT_EPOCH":867,"BSTAR":0.0012665096,"MEAN_MOTION_DOT":0.00034766,"MEAN_MOTION_DDOT":0}]
